OBJECT_NAME,OBJECT_ID,EPOCH,MEAN_MOTION,ECCENTRICITY,INCLINATION,RA_OF_ASC_NODE,ARG_OF_PERICENTER,MEAN_ANOMALY,EPHEMERIS_TYPE,CLASSIFICATION_TYPE,NORAD_CAT_ID,ELEMENT_SET_NO,REV_AT_EPOCH,BSTAR,MEAN_MOTION_DOT,MEAN_MOTION_DDOT
ZHONGXING-2C,2015-063A,2026-06-03T22:39:16.992288,1.00270795,.00074131,0.2399,90.6769,95.7849,149.2044,0,U,41021,999,3884,0,-.312E-5,0
GSAT-15,2015-065A,2026-06-03T20:53:41.208576,1.00270960,.00042199,0.0452,116.9940,317.3118,224.9543,0,U,41028,999,3866,0,-.246E-5,0
BADR-7 (ARABSAT-6B),2015-065B,2026-06-03T20:34:26.033664,1.00269280,.0003028,0.0455,244.7937,312.8032,29.3483,0,U,41029,999,3863,0,.157E-5,0
LAOSAT 1,2015-067A,2026-06-03T17:38:21.458976,1.00269754,.00023587,0.0388,224.6384,174.3800,246.2975,0,U,41034,999,3872,0,-.331E-5,0
TELSTAR 12V,2015-068A,2026-06-03T22:05:27.629088,1.00272001,.00025857,0.0180,357.2413,71.8965,139.6146,0,U,41036,999,3849,0,-.107E-5,0
ELEKTRO-L 2,2015-074A,2026-06-03T01:33:22.575168,1.00272380,.00012833,6.6592,70.6949,281.6013,268.0921,0,U,41105,999,3836,0,-.108E-5,0
COSMOS 2513,2015-075A,2026-06-04T01:57:59.329152,1.00271089,.0003756,0.0770,99.5355,329.0327,293.7244,0,U,41121,999,3841,0,-.126E-5,0
EXPRESS-AMU1,2015-082A,2026-06-03T22:19:42.972672,1.00272940,.00031599,0.0133,299.4899,138.9645,184.9750,0,U,41191,999,3813,0,.168E-5,0
GAOFEN-4,2015-083A,2026-06-03T22:39:54.432864,1.00270662,.00042925,0.3237,83.8134,109.3065,144.9586,0,U,41194,999,3839,0,-.323E-5,0
BELINTERSAT-1,2016-001A,2026-06-03T22:24:25.916256,1.00271645,.00022029,0.0429,144.5687,245.6862,249.7388,0,U,41238,999,3810,0,.119E-5,0
IRNSS-1E,2016-003A,2026-06-03T15:50:52.233792,1.00271426,.00178667,33.2059,59.9463,179.9869,1.6722,0,U,41241,999,3794,0,-.301E-5,0
EUTELSAT 9B,2016-005A,2026-06-03T22:12:19.471104,1.00271577,.00021665,0.0495,65.9579,337.7663,190.7184,0,U,41310,999,3798,0,.74E-6,0
SES-9,2016-013A,2026-06-03T19:15:14.869152,1.00271519,.00025103,0.0099,343.3208,96.4213,209.6347,0,U,41380,999,3730,0,-.333E-5,0
EUTELSAT 65 WEST A,2016-014A,2026-06-03T21:51:05.704416,1.00268462,.00025144,0.0483,354.1264,78.7761,82.0161,0,U,41382,999,3739,0,-.264E-5,0
IRNSS-1F,2016-015A,2026-06-03T22:18:58.044672,1.00276217,.00167195,5.3160,97.0803,186.9609,335.5723,0,U,41384,999,3753,0,.169E-5,0
BEIDOU-2 IGSO-6,2016-021A,2026-06-03T15:45:07.784640,1.00262467,.00573208,60.2067,38.1749,231.5636,312.2967,0,U,41434,999,3734,0,-.145E-5,0
IRNSS-1G,2016-027A,2026-06-03T19:21:18.220032,1.00272999,.00074149,5.1652,97.7821,351.5216,222.8674,0,U,41469,999,3704,0,-.323E-5,0
JCSAT-2B,2016-028A,2026-06-03T21:11:02.046048,1.00271212,.00012225,0.0181,334.9372,100.9727,288.1939,0,U,41471,999,3699,0,-.153E-5,0
THAICOM 8,2016-031A,2026-06-03T20:49:26.615424,1.00271481,.00040238,0.0579,37.0540,17.9577,228.2234,0,U,41552,999,3658,0,-.11E-5,0
INTELSAT 31 (IS-31),2016-035A,2026-06-03T19:59:52.023264,1.00270240,.00007895,0.0143,267.3905,341.4440,208.3714,0,U,41581,999,3655,0,-.139E-5,0
BEIDOU-2 G7,2016-037A,2026-06-03T22:41:16.800576,1.00271948,.00073521,1.6876,69.2127,0.3434,273.7295,0,U,41586,999,675,0,-.342E-5,0
ABS-2A (MONGOLSAT-1),2016-038A,2026-06-03T19:05:45.047328,1.00268799,.00015784,0.0209,331.8645,54.2496,227.3176,0,U,41588,999,3657,0,0,0
EUTELSAT 117 WEST B,2016-038B,2026-06-03T21:36:14.629248,1.00269934,.00001945,0.0080,140.5751,171.4242,147.4245,0,U,41589,999,3653,0,.1E-7,0
BRISAT,2016-039A,2026-06-03T20:04:38.582688,1.00276833,.00020406,0.0165,306.9986,131.7631,265.1907,0,U,41591,999,3647,0,-.183E-5,0
ECHOSTAR 18,2016-039B,2026-06-03T21:52:13.097280,1.00272104,.00016806,0.0175,346.1534,92.6788,80.2327,0,U,41592,999,3649,0,-.27E-5,0
MUOS-5,2016-041A,2026-06-03T21:39:06.852960,1.00270592,.01964644,2.2326,301.3957,260.8945,269.6235,0,U,41622,999,3695,0,-.117E-5,0
TIANTONG-1 1,2016-048A,2026-06-03T19:13:15.060000,1.00273839,.0006269,3.8236,43.3027,39.1379,199.5482,0,U,41725,999,3613,0,-.307E-5,0
JCSAT-16,2016-050A,2026-06-03T21:08:09.820608,1.00272086,.00014616,0.0181,335.4018,106.3827,271.5403,0,U,41729,999,3593,0,-.239E-5,0
USA 270,2016-052A,2026-06-02T09:40:52.627296,1.00282212,.0008496,4.1610,77.3749,336.5224,166.3382,0,U,41744,999,2798,0,.89E-6,0
USA 271,2016-052B,2026-06-01T19:24:54.468864,1.00265484,.0010805,4.1306,77.4501,158.0330,68.9246,0,U,41745,999,2776,0,-.348E-5,0
INTELSAT 36 (IS-36),2016-053A,2026-06-03T20:46:32.374272,1.00270677,.00016581,0.0119,5.2877,338.8294,288.3347,0,U,41747,999,3582,0,-.12E-6,0
INSAT-3DR,2016-054A,2026-06-03T19:05:30.070752,1.00271325,.00103209,0.1395,86.9553,189.2658,336.4092,0,U,41752,999,3568,0,-.65E-6,0
