ZHONGXING-2C            
1 41021U 15063A   26154.94394667 -.00000312  00000+0  00000+0 0  9994
2 41021   0.2399  90.6769 0007413  95.7849 149.2044  1.00270795 38845
GSAT-15                 
1 41028U 15065A   26154.87061584 -.00000246  00000+0  00000+0 0  9990
2 41028   0.0452 116.9940 0004219 317.3118 224.9543  1.00270960 38665
BADR-7 (ARABSAT-6B)     
1 41029U 15065B   26154.85724576  .00000157  00000+0  00000+0 0  9996
2 41029   0.0455 244.7937 0003028 312.8032  29.3483  1.00269280 38637
LAOSAT 1                
1 41034U 15067A   26154.73497059 -.00000331  00000+0  00000+0 0  9999
2 41034   0.0388 224.6384 0002358 174.3800 246.2975  1.00269754 38722
TELSTAR 12V             
1 41036U 15068A   26154.92045867 -.00000107  00000+0  00000+0 0  9990
2 41036   0.0180 357.2413 0002585  71.8965 139.6146  1.00272001 38493
ELEKTRO-L 2             
1 41105U 15074A   26154.06484462 -.00000108  00000+0  00000+0 0  9998
2 41105   6.6592  70.6949 0001283 281.6013 268.0921  1.00272380 38362
COSMOS 2513             
1 41121U 15075A   26155.08193668 -.00000126  00000+0  00000+0 0  9995
2 41121   0.0770  99.5355 0003756 329.0327 293.7244  1.00271089 38413
EXPRESS-AMU1            
1 41191U 15082A   26154.93035848  .00000168  00000+0  00000+0 0  9993
2 41191   0.0133 299.4899 0003159 138.9645 184.9750  1.00272940 38133
GAOFEN-4                
1 41194U 15083A   26154.94438001 -.00000323  00000+0  00000+0 0  9990
2 41194   0.3237  83.8134 0004292 109.3065 144.9586  1.00270662 38398
BELINTERSAT-1           
1 41238U 16001A   26154.93363329  .00000119  00000+0  00000+0 0  9991
2 41238   0.0429 144.5687 0002202 245.6862 249.7388  1.00271645 38108
IRNSS-1E                
1 41241U 16003A   26154.66032678 -.00000301  00000+0  00000+0 0  9991
2 41241  33.2059  59.9463 0017866 179.9869   1.6722  1.00271426 37943
EUTELSAT 9B             
1 41310U 16005A   26154.92522536  .00000074  00000+0  00000+0 0  9992
2 41310   0.0495  65.9579 0002166 337.7663 190.7184  1.00271577 37987
SES-9                   
1 41380U 16013A   26154.80225543 -.00000333  00000+0  00000+0 0  9992
2 41380   0.0099 343.3208 0002510  96.4213 209.6347  1.00271519 37302
EUTELSAT 65 WEST A      
1 41382U 16014A   26154.91048269 -.00000264  00000+0  00000+0 0  9998
2 41382   0.0483 354.1264 0002514  78.7761  82.0161  1.00268462 37397
IRNSS-1F                
1 41384U 16015A   26154.92983848  .00000169  00000+0  00000+0 0  9996
2 41384   5.3160  97.0803 0016719 186.9609 335.5723  1.00276217 37539
BEIDOU-2 IGSO-6         
1 41434U 16021A   26154.65634010 -.00000145  00000+0  00000+0 0  9998
2 41434  60.2067  38.1749 0057320 231.5636 312.2967  1.00262467 37349
IRNSS-1G                
1 41469U 16027A   26154.80646088 -.00000323  00000+0  00000+0 0  9995
2 41469   5.1652  97.7821 0007414 351.5216 222.8674  1.00272999 37042
JCSAT-2B                
1 41471U 16028A   26154.88266257 -.00000153  00000+0  00000+0 0  9994
2 41471   0.0181 334.9372 0001222 100.9727 288.1939  1.00271212 36996
THAICOM 8               
1 41552U 16031A   26154.86766916 -.00000110  00000+0  00000+0 0  9996
2 41552   0.0579  37.0540 0004023  17.9577 228.2234  1.00271481 36583
INTELSAT 31 (IS-31)     
1 41581U 16035A   26154.83324101 -.00000139  00000+0  00000+0 0  9996
2 41581   0.0143 267.3905 0000789 341.4440 208.3714  1.00270240 36555
BEIDOU-2 G7             
1 41586U 16037A   26154.94533334 -.00000342  00000+0  00000+0 0  9991
2 41586   1.6876  69.2127 0007352   0.3434 273.7295  1.00271948  6757
ABS-2A (MONGOLSAT-1)    
1 41588U 16038A   26154.79566027  .00000000  00000+0  00000+0 0  9992
2 41588   0.0209 331.8645 0001578  54.2496 227.3176  1.00268799 36571
EUTELSAT 117 WEST B     
1 41589U 16038B   26154.90016932  .00000001  00000+0  00000+0 0  9992
2 41589   0.0080 140.5751 0000194 171.4242 147.4245  1.00269934 36533
BRISAT                  
1 41591U 16039A   26154.83655767 -.00000183  00000+0  00000+0 0  9995
2 41591   0.0165 306.9986 0002040 131.7631 265.1907  1.00276833 36473
ECHOSTAR 18             
1 41592U 16039B   26154.91126270 -.00000270  00000+0  00000+0 0  9994
2 41592   0.0175 346.1534 0001680  92.6788  80.2327  1.00272104 36498
MUOS-5                  
1 41622U 16041A   26154.90216265 -.00000117  00000+0  00000+0 0  9994
2 41622   2.2326 301.3957 0196464 260.8945 269.6235  1.00270592 36956
TIANTONG-1 1            
1 41725U 16048A   26154.80086875 -.00000307  00000+0  00000+0 0  9997
2 41725   3.8236  43.3027 0006269  39.1379 199.5482  1.00273839 36131
JCSAT-16                
1 41729U 16050A   26154.88066922 -.00000239  00000+0  00000+0 0  9997
2 41729   0.0181 335.4018 0001461 106.3827 271.5403  1.00272086 35936
USA 270                 
1 41744U 16052A   26153.40338689  .00000089  00000+0  00000+0 0  9997
2 41744   4.1610  77.3749 0008496 336.5224 166.3382  1.00282212 27986
USA 271                 
1 41745U 16052B   26152.80896376 -.00000348  00000+0  00000+0 0  9992
2 41745   4.1306  77.4501 0010805 158.0330  68.9246  1.00265484 27762
INTELSAT 36 (IS-36)     
1 41747U 16053A   26154.86565248 -.00000012  00000+0  00000+0 0  9992
2 41747   0.0119   5.2877 0001658 338.8294 288.3347  1.00270677 35825
INSAT-3DR               
1 41752U 16054A   26154.79548693 -.00000065  00000+0  00000+0 0  9994
2 41752   0.1395  86.9553 0010320 189.2658 336.4092  1.00271325 35680
